{
  "type": "FeatureCollection",
  "metadata": {
    "case_id": "case_001",
    "timestamp_utc": "2026-09-10T22:28:20Z",
    "detection_mode": "adaptive",
    "total_candidates": 18,
    "accepted_candidates": 2,
    "rejected_candidates": 16
  },
  "features": [
    {
      "type": "Feature",
      "id": "CS_0001",
      "geometry": {
        "type": "Polygon",
        "coordinates": [
          [
            [
              -118.3802,
              33.740899999999996
            ],
            [
              -118.3802,
              33.74079999999999
            ],
            [
              -118.3805,
              33.74079999999999
            ],
            [
              -118.3805,
              33.7407
            ],
            [
              -118.3809,
              33.7407
            ],
            [
              -118.3809,
              33.74059999999999
            ],
            [
              -118.381,
              33.74059999999999
            ],
            [
              -118.381,
              33.7403
            ],
            [
              -118.3809,
              33.7403
            ],
            [
              -118.3809,
              33.739999999999995
            ],
            [
              -118.3806,
              33.739999999999995
            ],
            [
              -118.3806,
              33.7401
            ],
            [
              -118.3805,
              33.7401
            ],
            [
              -118.3805,
              33.7405
            ],
            [
              -118.3804,
              33.7405
            ],
            [
              -118.3804,
              33.740399999999994
            ],
            [
              -118.3803,
              33.740399999999994
            ],
            [
              -118.3803,
              33.7403
            ],
            [
              -118.38,
              33.7403
            ],
            [
              -118.38,
              33.7401
            ],
            [
              -118.3797,
              33.7401
            ],
            [
              -118.3797,
              33.740199999999994
            ],
            [
              -118.37950000000001,
              33.740199999999994
            ],
            [
              -118.37950000000001,
              33.7405
            ],
            [
              -118.3799,
              33.7405
            ],
            [
              -118.3799,
              33.740399999999994
            ],
            [
              -118.38,
              33.740399999999994
            ],
            [
              -118.38,
              33.74059999999999
            ],
            [
              -118.3799,
              33.74059999999999
            ],
            [
              -118.3799,
              33.740899999999996
            ],
            [
              -118.3802,
              33.740899999999996
            ]
          ]
        ]
      },
      "properties": {
        "candidate_id": "CS_0001",
        "numeric_id": 1,
        "raw_component_id": 40,
        "pixel_count": 74,
        "area_km2": 0.0076,
        "perimeter_km": 0.477,
        "centroid_lon": -118.38031,
        "centroid_lat": 33.74044,
        "bounding_box": [
          -118.38095,
          33.74005,
          -118.37955,
          33.74085
        ],
        "length_km": 0.151,
        "width_km": 0.091,
        "aspect_ratio": 1.66,
        "orientation_deg": 86.8,
        "mean_sigma0_db": -24.74,
        "min_sigma0_db": -27.82,
        "mean_contrast_db": 6.64,
        "max_contrast_db": 9.71,
        "candidate_score": 0.6,
        "heuristic_confidence": 0.6,
        "rejection_reasons": [
          "AREA_TOO_SMALL"
        ],
        "status": "REJECTED"
      }
    },
    {
      "type": "Feature",
      "id": "CS_0002",
      "geometry": {
        "type": "Polygon",
        "coordinates": [
          [
            [
              -118.3776,
              33.739399999999996
            ],
            [
              -118.3776,
              33.73909999999999
            ],
            [
              -118.3773,
              33.73909999999999
            ],
            [
              -118.3773,
              33.739399999999996
            ],
            [
              -118.3776,
              33.739399999999996
            ]
          ]
        ]
      },
      "properties": {
        "candidate_id": "CS_0002",
        "numeric_id": 2,
        "raw_component_id": 45,
        "pixel_count": 92,
        "area_km2": 0.0095,
        "perimeter_km": 0.629,
        "centroid_lon": -118.37688,
        "centroid_lat": 33.73944,
        "bounding_box": [
          -118.37755,
          33.73895,
          -118.37595,
          33.74015
        ],
        "length_km": 0.188,
        "width_km": 0.098,
        "aspect_ratio": 1.91,
        "orientation_deg": -51.3,
        "mean_sigma0_db": -24.3,
        "min_sigma0_db": -26.75,
        "mean_contrast_db": 6.94,
        "max_contrast_db": 9.62,
        "candidate_score": 0.615,
        "heuristic_confidence": 0.615,
        "rejection_reasons": [
          "AREA_TOO_SMALL"
        ],
        "status": "REJECTED"
      }
    },
    {
      "type": "Feature",
      "id": "CS_0003",
      "geometry": {
        "type": "Polygon",
        "coordinates": [
          [
            [
              -118.3782,
              33.7397
            ],
            [
              -118.3782,
              33.7395
            ],
            [
              -118.3785,
              33.7395
            ],
            [
              -118.3785,
              33.739399999999996
            ],
            [
              -118.3787,
              33.739399999999996
            ],
            [
              -118.3787,
              33.7391
            ],
            [
              -118.3785,
              33.7391
            ],
            [
              -118.3785,
              33.739
            ],
            [
              -118.3782,
              33.739
            ],
            [
              -118.3782,
              33.7387
            ],
            [
              -118.3779,
              33.7387
            ],
            [
              -118.3779,
              33.7392
            ],
            [
              -118.378,
              33.7392
            ],
            [
              -118.378,
              33.739399999999996
            ],
            [
              -118.3779,
              33.739399999999996
            ],
            [
              -118.3779,
              33.7397
            ],
            [
              -118.3782,
              33.7397
            ]
          ]
        ]
      },
      "properties": {
        "candidate_id": "CS_0003",
        "numeric_id": 3,
        "raw_component_id": 50,
        "pixel_count": 70,
        "area_km2": 0.0072,
        "perimeter_km": 0.477,
        "centroid_lon": -118.37834,
        "centroid_lat": 33.73908,
        "bounding_box": [
          -118.37885,
          33.73855,
          -118.37795,
          33.73965
        ],
        "length_km": 0.147,
        "width_km": 0.084,
        "aspect_ratio": 1.76,
        "orientation_deg": 28.7,
        "mean_sigma0_db": -24.16,
        "min_sigma0_db": -27.82,
        "mean_contrast_db": 5.85,
        "max_contrast_db": 10.13,
        "candidate_score": 0.521,
        "heuristic_confidence": 0.521,
        "rejection_reasons": [
          "AREA_TOO_SMALL"
        ],
        "status": "REJECTED"
      }
    },
    {
      "type": "Feature",
      "id": "CS_0004",
      "geometry": {
        "type": "Polygon",
        "coordinates": [
          [
            [
              -118.3669,
              33.7377
            ],
            [
              -118.3669,
              33.7375
            ],
            [
              -118.36710000000001,
              33.7375
            ],
            [
              -118.36710000000001,
              33.737199999999994
            ],
            [
              -118.367,
              33.737199999999994
            ],
            [
              -118.367,
              33.736999999999995
            ],
            [
              -118.36670000000001,
              33.736999999999995
            ],
            [
              -118.36670000000001,
              33.737399999999994
            ],
            [
              -118.3665,
              33.737399999999994
            ],
            [
              -118.3665,
              33.7373
            ],
            [
              -118.3666,
              33.7373
            ],
            [
              -118.3666,
              33.736999999999995
            ],
            [
              -118.36630000000001,
              33.736999999999995
            ],
            [
              -118.36630000000001,
              33.7371
            ],
            [
              -118.3661,
              33.7371
            ],
            [
              -118.3661,
              33.7375
            ],
            [
              -118.36640000000001,
              33.7375
            ],
            [
              -118.36640000000001,
              33.7377
            ],
            [
              -118.3669,
              33.7377
            ]
          ]
        ]
      },
      "properties": {
        "candidate_id": "CS_0004",
        "numeric_id": 4,
        "raw_component_id": 65,
        "pixel_count": 51,
        "area_km2": 0.0052,
        "perimeter_km": 0.345,
        "centroid_lon": -118.3666,
        "centroid_lat": 33.73733,
        "bounding_box": [
          -118.36705,
          33.73705,
          -118.36615,
          33.73765
        ],
        "length_km": 0.099,
        "width_km": 0.08,
        "aspect_ratio": 1.23,
        "orientation_deg": -81.7,
        "mean_sigma0_db": -24.61,
        "min_sigma0_db": -28.6,
        "mean_contrast_db": 7.16,
        "max_contrast_db": 11.38,
        "candidate_score": 0.617,
        "heuristic_confidence": 0.617,
        "rejection_reasons": [
          "AREA_TOO_SMALL"
        ],
        "status": "REJECTED"
      }
    },
    {
      "type": "Feature",
      "id": "CS_0005",
      "geometry": {
        "type": "Polygon",
        "coordinates": [
          [
            [
              -118.3651,
              33.7375
            ],
            [
              -118.3651,
              33.737399999999994
            ],
            [
              -118.3652,
              33.737399999999994
            ],
            [
              -118.3652,
              33.7369
            ],
            [
              -118.3649,
              33.7369
            ],
            [
              -118.3649,
              33.736599999999996
            ],
            [
              -118.3652,
              33.736599999999996
            ],
            [
              -118.3652,
              33.7361
            ],
            [
              -118.3651,
              33.7361
            ],
            [
              -118.3651,
              33.736
            ],
            [
              -118.3648,
              33.736
            ],
            [
              -118.3648,
              33.7361
            ],
            [
              -118.3647,
              33.7361
            ],
            [
              -118.3647,
              33.736
            ],
            [
              -118.3646,
              33.736
            ],
            [
              -118.3646,
              33.735699999999994
            ],
            [
              -118.3644,
              33.735699999999994
            ],
            [
              -118.3644,
              33.7356
            ],
            [
              -118.3643,
              33.7356
            ],
            [
              -118.3643,
              33.735499999999995
            ],
            [
              -118.364,
              33.735499999999995
            ],
            [
              -118.364,
              33.7356
            ],
            [
              -118.3638,
              33.7356
            ],
            [
              -118.3638,
              33.735899999999994
            ],
            [
              -118.3635,
              33.735899999999994
            ],
            [
              -118.3635,
              33.736
            ],
            [
              -118.3634,
              33.736
            ],
            [
              -118.3634,
              33.7361
            ],
            [
              -118.3633,
              33.7361
            ],
            [
              -118.3633,
              33.736
            ],
            [
              -118.3632,
              33.736
            ],
            [
              -118.3632,
              33.7358
            ],
            [
              -118.363,
              33.7358
            ],
            [
              -118.363,
              33.7354
            ],
            [
              -118.3625,
              33.7354
            ],
            [
              -118.3625,
              33.7356
            ],
            [
              -118.3623,
              33.7356
            ],
            [
              -118.3623,
              33.7354
            ],
            [
              -118.362,
              33.7354
            ],
            [
              -118.362,
              33.7358
            ],
            [
              -118.3621,
              33.7358
            ],
            [
              -118.3621,
              33.735899999999994
            ],
            [
              -118.3622,
              33.735899999999994
            ],
            [
              -118.3622,
              33.7363
            ],
            [
              -118.3623,
              33.7363
            ],
            [
              -118.3623,
              33.7367
            ],
            [
              -118.36240000000001,
              33.7367
            ],
            [
              -118.36240000000001,
              33.736799999999995
            ],
            [
              -118.3629,
              33.736799999999995
            ],
            [
              -118.3629,
              33.7365
            ],
            [
              -118.36280000000001,
              33.7365
            ],
            [
              -118.36280000000001,
              33.7363
            ],
            [
              -118.3627,
              33.7363
            ],
            [
              -118.3627,
              33.7362
            ],
            [
              -118.3626,
              33.7362
            ],
            [
              -118.3626,
              33.736
            ],
            [
              -118.36280000000001,
              33.736
            ],
            [
              -118.36280000000001,
              33.7361
            ],
            [
              -118.3629,
              33.7361
            ],
            [
              -118.3629,
              33.7362
            ],
            [
              -118.363,
              33.7362
            ],
            [
              -118.363,
              33.7363
            ],
            [
              -118.3631,
              33.7363
            ],
            [
              -118.3631,
              33.7365
            ],
            [
              -118.3632,
              33.7365
            ],
            [
              -118.3632,
              33.736599999999996
            ],
            [
              -118.3633,
              33.736599999999996
            ],
            [
              -118.3633,
              33.7367
            ],
            [
              -118.3632,
              33.7367
            ],
            [
              -118.3632,
              33.736999999999995
            ],
            [
              -118.3631,
              33.736999999999995
            ],
            [
              -118.3631,
              33.7373
            ],
            [
              -118.3635,
              33.7373
            ],
            [
              -118.3635,
              33.7371
            ],
            [
              -118.3639,
              33.7371
            ],
            [
              -118.3639,
              33.736799999999995
            ],
            [
              -118.36370000000001,
              33.736799999999995
            ],
            [
              -118.36370000000001,
              33.7365
            ],
            [
              -118.3638,
              33.7365
            ],
            [
              -118.3638,
              33.7367
            ],
            [
              -118.36410000000001,
              33.7367
            ],
            [
              -118.36410000000001,
              33.7362
            ],
            [
              -118.364,
              33.7362
            ],
            [
              -118.364,
              33.7361
            ],
            [
              -118.3639,
              33.7361
            ],
            [
              -118.3639,
              33.736
            ],
            [
              -118.36410000000001,
              33.736
            ],
            [
              -118.36410000000001,
              33.7361
            ],
            [
              -118.3644,
              33.7361
            ],
            [
              -118.3644,
              33.736399999999996
            ],
            [
              -118.3648,
              33.736399999999996
            ],
            [
              -118.3648,
              33.736599999999996
            ],
            [
              -118.3646,
              33.736599999999996
            ],
            [
              -118.3646,
              33.736999999999995
            ],
            [
              -118.3648,
              33.736999999999995
            ],
            [
              -118.3648,
              33.737199999999994
            ],
            [
              -118.3647,
              33.737199999999994
            ],
            [
              -118.3647,
              33.7375
            ],
            [
              -118.3651,
              33.7375
            ]
          ]
        ]
      },
      "properties": {
        "candidate_id": "CS_0005",
        "numeric_id": 5,
        "raw_component_id": 67,
        "pixel_count": 313,
        "area_km2": 0.0322,
        "perimeter_km": 1.531,
        "centroid_lon": -118.36362,
        "centroid_lat": 33.73632,
        "bounding_box": [
          -118.36515,
          33.73545,
          -118.36205,
          33.73745
        ],
        "length_km": 0.352,
        "width_km": 0.196,
        "aspect_ratio": 1.79,
        "orientation_deg": -68.8,
        "mean_sigma0_db": -24.61,
        "min_sigma0_db": -29.94,
        "mean_contrast_db": 6.5,
        "max_contrast_db": 11.69,
        "candidate_score": 0.587,
        "heuristic_confidence": 0.587,
        "rejection_reasons": [
          "AREA_TOO_SMALL"
        ],
        "status": "REJECTED"
      }
    },
    {
      "type": "Feature",
      "id": "CS_0006",
      "geometry": {
        "type": "Polygon",
        "coordinates": [
          [
            [
              -118.3602,
              33.7348
            ],
            [
              -118.3602,
              33.7346
            ],
            [
              -118.3605,
              33.7346
            ],
            [
              -118.3605,
              33.734
            ],
            [
              -118.3603,
              33.734
            ],
            [
              -118.3603,
              33.7338
            ],
            [
              -118.36,
              33.7338
            ],
            [
              -118.36,
              33.7341
            ],
            [
              -118.3601,
              33.7341
            ],
            [
              -118.3601,
              33.7344
            ],
            [
              -118.3602,
              33.7344
            ],
            [
              -118.3602,
              33.7345
            ],
            [
              -118.3598,
              33.7345
            ],
            [
              -118.3598,
              33.7342
            ],
            [
              -118.3595,
              33.7342
            ],
            [
              -118.3595,
              33.7345
            ],
            [
              -118.3596,
              33.7345
            ],
            [
              -118.3596,
              33.7348
            ],
            [
              -118.3602,
              33.7348
            ]
          ]
        ]
      },
      "properties": {
        "candidate_id": "CS_0006",
        "numeric_id": 6,
        "raw_component_id": 95,
        "pixel_count": 56,
        "area_km2": 0.0058,
        "perimeter_km": 0.436,
        "centroid_lon": -118.36005,
        "centroid_lat": 33.73437,
        "bounding_box": [
          -118.36045,
          33.73385,
          -118.35955,
          33.73475
        ],
        "length_km": 0.128,
        "width_km": 0.087,
        "aspect_ratio": 1.47,
        "orientation_deg": 35.2,
        "mean_sigma0_db": -24.36,
        "min_sigma0_db": -26.75,
        "mean_contrast_db": 6.1,
        "max_contrast_db": 8.23,
        "candidate_score": 0.542,
        "heuristic_confidence": 0.542,
        "rejection_reasons": [
          "AREA_TOO_SMALL"
        ],
        "status": "REJECTED"
      }
    },
    {
      "type": "Feature",
      "id": "CS_0007",
      "geometry": {
        "type": "Polygon",
        "coordinates": [
          [
            [
              -118.18379999999999,
              33.733399999999996
            ],
            [
              -118.18379999999999,
              33.73329999999999
            ],
            [
              -118.1839,
              33.73329999999999
            ],
            [
              -118.1839,
              33.732899999999994
            ],
            [
              -118.1835,
              33.732899999999994
            ],
            [
              -118.1835,
              33.7326
            ],
            [
              -118.1832,
              33.7326
            ],
            [
              -118.1832,
              33.732899999999994
            ],
            [
              -118.1831,
              33.732899999999994
            ],
            [
              -118.1831,
              33.733
            ],
            [
              -118.18299999999999,
              33.733
            ],
            [
              -118.18299999999999,
              33.733399999999996
            ],
            [
              -118.18379999999999,
              33.733399999999996
            ]
          ]
        ]
      },
      "properties": {
        "candidate_id": "CS_0007",
        "numeric_id": 7,
        "raw_component_id": 104,
        "pixel_count": 52,
        "area_km2": 0.0053,
        "perimeter_km": 0.304,
        "centroid_lon": -118.18343,
        "centroid_lat": 33.73308,
        "bounding_box": [
          -118.18385,
          33.73265,
          -118.18305,
          33.73335
        ],
        "length_km": 0.09,
        "width_km": 0.085,
        "aspect_ratio": 1.07,
        "orientation_deg": -30.8,
        "mean_sigma0_db": -24.72,
        "min_sigma0_db": -27.38,
        "mean_contrast_db": 6.78,
        "max_contrast_db": 9.31,
        "candidate_score": 0.6,
        "heuristic_confidence": 0.6,
        "rejection_reasons": [
          "AREA_TOO_SMALL"
        ],
        "status": "REJECTED"
      }
    },
    {
      "type": "Feature",
      "id": "CS_0008",
      "geometry": {
        "type": "Polygon",
        "coordinates": [
          [
            [
              -118.2382,
              33.726
            ],
            [
              -118.2382,
              33.725699999999996
            ],
            [
              -118.2386,
              33.725699999999996
            ],
            [
              -118.2386,
              33.7256
            ],
            [
              -118.2388,
              33.7256
            ],
            [
              -118.2388,
              33.7255
            ],
            [
              -118.2393,
              33.7255
            ],
            [
              -118.2393,
              33.7252
            ],
            [
              -118.2388,
              33.7252
            ],
            [
              -118.2388,
              33.7253
            ],
            [
              -118.2387,
              33.7253
            ],
            [
              -118.2387,
              33.725
            ],
            [
              -118.2384,
              33.725
            ],
            [
              -118.2384,
              33.7253
            ],
            [
              -118.2382,
              33.7253
            ],
            [
              -118.2382,
              33.7254
            ],
            [
              -118.2381,
              33.7254
            ],
            [
              -118.2381,
              33.7256
            ],
            [
              -118.23780000000001,
              33.7256
            ],
            [
              -118.23780000000001,
              33.726
            ],
            [
              -118.2382,
              33.726
            ]
          ]
        ]
      },
      "properties": {
        "candidate_id": "CS_0008",
        "numeric_id": 8,
        "raw_component_id": 146,
        "pixel_count": 64,
        "area_km2": 0.0066,
        "perimeter_km": 0.446,
        "centroid_lon": -118.23849,
        "centroid_lat": 33.72549,
        "bounding_box": [
          -118.23925,
          33.72505,
          -118.23785,
          33.72595
        ],
        "length_km": 0.165,
        "width_km": 0.069,
        "aspect_ratio": 2.38,
        "orientation_deg": 59.0,
        "mean_sigma0_db": -24.58,
        "min_sigma0_db": -27.4,
        "mean_contrast_db": 6.07,
        "max_contrast_db": 9.11,
        "candidate_score": 0.562,
        "heuristic_confidence": 0.562,
        "rejection_reasons": [
          "AREA_TOO_SMALL"
        ],
        "status": "REJECTED"
      }
    },
    {
      "type": "Feature",
      "id": "CS_0009",
      "geometry": {
        "type": "Polygon",
        "coordinates": [
          [
            [
              -118.2801,
              33.4995
            ],
            [
              -118.2801,
              33.4993
            ],
            [
              -118.2804,
              33.4993
            ],
            [
              -118.2804,
              33.4991
            ],
            [
              -118.2805,
              33.4991
            ],
            [
              -118.2805,
              33.498999999999995
            ],
            [
              -118.2806,
              33.498999999999995
            ],
            [
              -118.2806,
              33.498599999999996
            ],
            [
              -118.28030000000001,
              33.498599999999996
            ],
            [
              -118.28030000000001,
              33.4984
            ],
            [
              -118.28,
              33.4984
            ],
            [
              -118.28,
              33.4985
            ],
            [
              -118.2797,
              33.4985
            ],
            [
              -118.2797,
              33.4983
            ],
            [
              -118.2796,
              33.4983
            ],
            [
              -118.2796,
              33.4982
            ],
            [
              -118.27980000000001,
              33.4982
            ],
            [
              -118.27980000000001,
              33.497899999999994
            ],
            [
              -118.2792,
              33.497899999999994
            ],
            [
              -118.2792,
              33.4984
            ],
            [
              -118.2793,
              33.4984
            ],
            [
              -118.2793,
              33.498599999999996
            ],
            [
              -118.2792,
              33.498599999999996
            ],
            [
              -118.2792,
              33.498799999999996
            ],
            [
              -118.27900000000001,
              33.498799999999996
            ],
            [
              -118.27900000000001,
              33.4991
            ],
            [
              -118.2793,
              33.4991
            ],
            [
              -118.2793,
              33.498999999999995
            ],
            [
              -118.2796,
              33.498999999999995
            ],
            [
              -118.2796,
              33.4993
            ],
            [
              -118.27980000000001,
              33.4993
            ],
            [
              -118.27980000000001,
              33.4995
            ],
            [
              -118.2801,
              33.4995
            ]
          ],
          [
            [
              -118.2797,
              33.4989
            ],
            [
              -118.2796,
              33.4989
            ],
            [
              -118.2796,
              33.498799999999996
            ],
            [
              -118.2797,
              33.498799999999996
            ],
            [
              -118.2797,
              33.4989
            ]
          ]
        ]
      },
      "properties": {
        "candidate_id": "CS_0009",
        "numeric_id": 9,
        "raw_component_id": 375,
        "pixel_count": 137,
        "area_km2": 0.0141,
        "perimeter_km": 0.619,
        "centroid_lon": -118.27979,
        "centroid_lat": 33.49873,
        "bounding_box": [
          -118.28055,
          33.49795,
          -118.27905,
          33.49945
        ],
        "length_km": 0.185,
        "width_km": 0.123,
        "aspect_ratio": 1.5,
        "orientation_deg": -33.7,
        "mean_sigma0_db": -24.76,
        "min_sigma0_db": -28.59,
        "mean_contrast_db": 6.1,
        "max_contrast_db": 9.93,
        "candidate_score": 0.554,
        "heuristic_confidence": 0.554,
        "rejection_reasons": [
          "AREA_TOO_SMALL"
        ],
        "status": "REJECTED"
      }
    },
    {
      "type": "Feature",
      "id": "CS_0010",
      "geometry": {
        "type": "Polygon",
        "coordinates": [
          [
            [
              -118.39750000000001,
              33.4174
            ],
            [
              -118.39750000000001,
              33.4171
            ],
            [
              -118.39720000000001,
              33.4171
            ],
            [
              -118.39720000000001,
              33.4174
            ],
            [
              -118.39750000000001,
              33.4174
            ]
          ]
        ]
      },
      "properties": {
        "candidate_id": "CS_0010",
        "numeric_id": 10,
        "raw_component_id": 453,
        "pixel_count": 843,
        "area_km2": 0.087,
        "perimeter_km": 2.377,
        "centroid_lon": -118.39589,
        "centroid_lat": 33.41809,
        "bounding_box": [
          -118.39865,
          33.41655,
          -118.39375,
          33.42015
        ],
        "length_km": 0.422,
        "width_km": 0.347,
        "aspect_ratio": 1.22,
        "orientation_deg": -82.4,
        "mean_sigma0_db": -25.61,
        "min_sigma0_db": -31.56,
        "mean_contrast_db": 6.17,
        "max_contrast_db": 12.05,
        "candidate_score": 0.599,
        "heuristic_confidence": 0.599,
        "rejection_reasons": [],
        "status": "ACCEPTED"
      }
    },
    {
      "type": "Feature",
      "id": "CS_0011",
      "geometry": {
        "type": "Polygon",
        "coordinates": [
          [
            [
              -118.3889,
              33.4192
            ],
            [
              -118.3889,
              33.418299999999995
            ],
            [
              -118.3884,
              33.418299999999995
            ],
            [
              -118.3884,
              33.4186
            ],
            [
              -118.38820000000001,
              33.4186
            ],
            [
              -118.38820000000001,
              33.4184
            ],
            [
              -118.38770000000001,
              33.4184
            ],
            [
              -118.38770000000001,
              33.418299999999995
            ],
            [
              -118.38780000000001,
              33.418299999999995
            ],
            [
              -118.38780000000001,
              33.417899999999996
            ],
            [
              -118.38740000000001,
              33.417899999999996
            ],
            [
              -118.38740000000001,
              33.4184
            ],
            [
              -118.3876,
              33.4184
            ],
            [
              -118.3876,
              33.418699999999994
            ],
            [
              -118.388,
              33.418699999999994
            ],
            [
              -118.388,
              33.419
            ],
            [
              -118.38850000000001,
              33.419
            ],
            [
              -118.38850000000001,
              33.418899999999994
            ],
            [
              -118.38860000000001,
              33.418899999999994
            ],
            [
              -118.38860000000001,
              33.4192
            ],
            [
              -118.3889,
              33.4192
            ]
          ]
        ]
      },
      "properties": {
        "candidate_id": "CS_0011",
        "numeric_id": 11,
        "raw_component_id": 454,
        "pixel_count": 91,
        "area_km2": 0.0094,
        "perimeter_km": 0.589,
        "centroid_lon": -118.38822,
        "centroid_lat": 33.41858,
        "bounding_box": [
          -118.38885,
          33.41795,
          -118.38745,
          33.41915
        ],
        "length_km": 0.197,
        "width_km": 0.089,
        "aspect_ratio": 2.21,
        "orientation_deg": -55.4,
        "mean_sigma0_db": -27.31,
        "min_sigma0_db": -30.47,
        "mean_contrast_db": 5.33,
        "max_contrast_db": 8.24,
        "candidate_score": 0.581,
        "heuristic_confidence": 0.581,
        "rejection_reasons": [
          "AREA_TOO_SMALL"
        ],
        "status": "REJECTED"
      }
    },
    {
      "type": "Feature",
      "id": "CS_0012",
      "geometry": {
        "type": "Polygon",
        "coordinates": [
          [
            [
              -118.3877,
              33.4176
            ],
            [
              -118.3877,
              33.4173
            ],
            [
              -118.3878,
              33.4173
            ],
            [
              -118.3878,
              33.4172
            ],
            [
              -118.3879,
              33.4172
            ],
            [
              -118.3879,
              33.4171
            ],
            [
              -118.38810000000001,
              33.4171
            ],
            [
              -118.38810000000001,
              33.4168
            ],
            [
              -118.3879,
              33.4168
            ],
            [
              -118.3879,
              33.4166
            ],
            [
              -118.3882,
              33.4166
            ],
            [
              -118.3882,
              33.4164
            ],
            [
              -118.3883,
              33.4164
            ],
            [
              -118.3883,
              33.4166
            ],
            [
              -118.3887,
              33.4166
            ],
            [
              -118.3887,
              33.4165
            ],
            [
              -118.3889,
              33.4165
            ],
            [
              -118.3889,
              33.4164
            ],
            [
              -118.389,
              33.4164
            ],
            [
              -118.389,
              33.416
            ],
            [
              -118.3889,
              33.416
            ],
            [
              -118.3889,
              33.4158
            ],
            [
              -118.389,
              33.4158
            ],
            [
              -118.389,
              33.4154
            ],
            [
              -118.3887,
              33.4154
            ],
            [
              -118.3887,
              33.4151
            ],
            [
              -118.3888,
              33.4151
            ],
            [
              -118.3888,
              33.415
            ],
            [
              -118.3889,
              33.415
            ],
            [
              -118.3889,
              33.4149
            ],
            [
              -118.3891,
              33.4149
            ],
            [
              -118.3891,
              33.4148
            ],
            [
              -118.3893,
              33.4148
            ],
            [
              -118.3893,
              33.4147
            ],
            [
              -118.3895,
              33.4147
            ],
            [
              -118.3895,
              33.4146
            ],
            [
              -118.3896,
              33.4146
            ],
            [
              -118.3896,
              33.4143
            ],
            [
              -118.3895,
              33.4143
            ],
            [
              -118.3895,
              33.4142
            ],
            [
              -118.3888,
              33.4142
            ],
            [
              -118.3888,
              33.4143
            ],
            [
              -118.3887,
              33.4143
            ],
            [
              -118.3887,
              33.4146
            ],
            [
              -118.3886,
              33.4146
            ],
            [
              -118.3886,
              33.4148
            ],
            [
              -118.38850000000001,
              33.4148
            ],
            [
              -118.38850000000001,
              33.4145
            ],
            [
              -118.3882,
              33.4145
            ],
            [
              -118.3882,
              33.4146
            ],
            [
              -118.388,
              33.4146
            ],
            [
              -118.388,
              33.4147
            ],
            [
              -118.3877,
              33.4147
            ],
            [
              -118.3877,
              33.415
            ],
            [
              -118.3878,
              33.415
            ],
            [
              -118.3878,
              33.4154
            ],
            [
              -118.38810000000001,
              33.4154
            ],
            [
              -118.38810000000001,
              33.4155
            ],
            [
              -118.3882,
              33.4155
            ],
            [
              -118.3882,
              33.4158
            ],
            [
              -118.38810000000001,
              33.4158
            ],
            [
              -118.38810000000001,
              33.4156
            ],
            [
              -118.388,
              33.4156
            ],
            [
              -118.388,
              33.4155
            ],
            [
              -118.3877,
              33.4155
            ],
            [
              -118.3877,
              33.4157
            ],
            [
              -118.3876,
              33.4157
            ],
            [
              -118.3876,
              33.4158
            ],
            [
              -118.3875,
              33.4158
            ],
            [
              -118.3875,
              33.4157
            ],
            [
              -118.3874,
              33.4157
            ],
            [
              -118.3874,
              33.4156
            ],
            [
              -118.3872,
              33.4156
            ],
            [
              -118.3872,
              33.4153
            ],
            [
              -118.3869,
              33.4153
            ],
            [
              -118.3869,
              33.416
            ],
            [
              -118.3867,
              33.416
            ],
            [
              -118.3867,
              33.4163
            ],
            [
              -118.3873,
              33.4163
            ],
            [
              -118.3873,
              33.4162
            ],
            [
              -118.3874,
              33.4162
            ],
            [
              -118.3874,
              33.4165
            ],
            [
              -118.3872,
              33.4165
            ],
            [
              -118.3872,
              33.4168
            ],
            [
              -118.3876,
              33.4168
            ],
            [
              -118.3876,
              33.417
            ],
            [
              -118.3875,
              33.417
            ],
            [
              -118.3875,
              33.4172
            ],
            [
              -118.3872,
              33.4172
            ],
            [
              -118.3872,
              33.4175
            ],
            [
              -118.3873,
              33.4175
            ],
            [
              -118.3873,
              33.4176
            ],
            [
              -118.3877,
              33.4176
            ]
          ],
          [
            [
              -118.3879,
              33.4164
            ],
            [
              -118.3877,
              33.4164
            ],
            [
              -118.3877,
              33.4163
            ],
            [
              -118.3878,
              33.4163
            ],
            [
              -118.3878,
              33.4162
            ],
            [
              -118.3879,
              33.4162
            ],
            [
              -118.3879,
              33.4164
            ]
          ],
          [
            [
              -118.3884,
              33.4151
            ],
            [
              -118.38810000000001,
              33.4151
            ],
            [
              -118.38810000000001,
              33.4149
            ],
            [
              -118.3884,
              33.4149
            ],
            [
              -118.3884,
              33.4151
            ]
          ]
        ]
      },
      "properties": {
        "candidate_id": "CS_0012",
        "numeric_id": 12,
        "raw_component_id": 463,
        "pixel_count": 391,
        "area_km2": 0.0404,
        "perimeter_km": 1.504,
        "centroid_lon": -118.38812,
        "centroid_lat": 33.41576,
        "bounding_box": [
          -118.38955,
          33.41425,
          -118.38675,
          33.41755
        ],
        "length_km": 0.394,
        "width_km": 0.185,
        "aspect_ratio": 2.13,
        "orientation_deg": 26.8,
        "mean_sigma0_db": -25.73,
        "min_sigma0_db": -29.51,
        "mean_contrast_db": 5.89,
        "max_contrast_db": 10.4,
        "candidate_score": 0.577,
        "heuristic_confidence": 0.577,
        "rejection_reasons": [
          "AREA_TOO_SMALL"
        ],
        "status": "REJECTED"
      }
    },
    {
      "type": "Feature",
      "id": "CS_0013",
      "geometry": {
        "type": "Polygon",
        "coordinates": [
          [
            [
              -118.39070000000001,
              33.4143
            ],
            [
              -118.39070000000001,
              33.4139
            ],
            [
              -118.39040000000001,
              33.4139
            ],
            [
              -118.39040000000001,
              33.413799999999995
            ],
            [
              -118.3905,
              33.413799999999995
            ],
            [
              -118.3905,
              33.4135
            ],
            [
              -118.39020000000001,
              33.4135
            ],
            [
              -118.39020000000001,
              33.413599999999995
            ],
            [
              -118.3901,
              33.413599999999995
            ],
            [
              -118.3901,
              33.4137
            ],
            [
              -118.38990000000001,
              33.4137
            ],
            [
              -118.38990000000001,
              33.413799999999995
            ],
            [
              -118.38980000000001,
              33.413799999999995
            ],
            [
              -118.38980000000001,
              33.4139
            ],
            [
              -118.3897,
              33.4139
            ],
            [
              -118.3897,
              33.4143
            ],
            [
              -118.39000000000001,
              33.4143
            ],
            [
              -118.39000000000001,
              33.414199999999994
            ],
            [
              -118.3901,
              33.414199999999994
            ],
            [
              -118.3901,
              33.4143
            ],
            [
              -118.39070000000001,
              33.4143
            ]
          ]
        ]
      },
      "properties": {
        "candidate_id": "CS_0013",
        "numeric_id": 13,
        "raw_component_id": 475,
        "pixel_count": 58,
        "area_km2": 0.006,
        "perimeter_km": 0.325,
        "centroid_lon": -118.39021,
        "centroid_lat": 33.41398,
        "bounding_box": [
          -118.39065,
          33.41355,
          -118.38975,
          33.41425
        ],
        "length_km": 0.097,
        "width_km": 0.089,
        "aspect_ratio": 1.09,
        "orientation_deg": 64.6,
        "mean_sigma0_db": -25.31,
        "min_sigma0_db": -28.64,
        "mean_contrast_db": 8.47,
        "max_contrast_db": 11.85,
        "candidate_score": 0.636,
        "heuristic_confidence": 0.636,
        "rejection_reasons": [
          "AREA_TOO_SMALL"
        ],
        "status": "REJECTED"
      }
    },
    {
      "type": "Feature",
      "id": "CS_0014",
      "geometry": {
        "type": "Polygon",
        "coordinates": [
          [
            [
              -118.3784,
              33.4138
            ],
            [
              -118.3784,
              33.4134
            ],
            [
              -118.37859999999999,
              33.4134
            ],
            [
              -118.37859999999999,
              33.4132
            ],
            [
              -118.3788,
              33.4132
            ],
            [
              -118.3788,
              33.4129
            ],
            [
              -118.3785,
              33.4129
            ],
            [
              -118.3785,
              33.4131
            ],
            [
              -118.3783,
              33.4131
            ],
            [
              -118.3783,
              33.413000000000004
            ],
            [
              -118.3784,
              33.413000000000004
            ],
            [
              -118.3784,
              33.412600000000005
            ],
            [
              -118.3783,
              33.412600000000005
            ],
            [
              -118.3783,
              33.4125
            ],
            [
              -118.378,
              33.4125
            ],
            [
              -118.378,
              33.412400000000005
            ],
            [
              -118.3777,
              33.412400000000005
            ],
            [
              -118.3777,
              33.412600000000005
            ],
            [
              -118.3771,
              33.412600000000005
            ],
            [
              -118.3771,
              33.413000000000004
            ],
            [
              -118.3779,
              33.413000000000004
            ],
            [
              -118.3779,
              33.4131
            ],
            [
              -118.378,
              33.4131
            ],
            [
              -118.378,
              33.4132
            ],
            [
              -118.3779,
              33.4132
            ],
            [
              -118.3779,
              33.4133
            ],
            [
              -118.3777,
              33.4133
            ],
            [
              -118.3777,
              33.4134
            ],
            [
              -118.3776,
              33.4134
            ],
            [
              -118.3776,
              33.4138
            ],
            [
              -118.3779,
              33.4138
            ],
            [
              -118.3779,
              33.4136
            ],
            [
              -118.3781,
              33.4136
            ],
            [
              -118.3781,
              33.4138
            ],
            [
              -118.3784,
              33.4138
            ]
          ]
        ]
      },
      "properties": {
        "candidate_id": "CS_0014",
        "numeric_id": 14,
        "raw_component_id": 481,
        "pixel_count": 123,
        "area_km2": 0.0127,
        "perimeter_km": 0.65,
        "centroid_lon": -118.37798,
        "centroid_lat": 33.41306,
        "bounding_box": [
          -118.37875,
          33.41245,
          -118.37715,
          33.41375
        ],
        "length_km": 0.172,
        "width_km": 0.129,
        "aspect_ratio": 1.34,
        "orientation_deg": -33.0,
        "mean_sigma0_db": -26.75,
        "min_sigma0_db": -29.97,
        "mean_contrast_db": 5.39,
        "max_contrast_db": 8.54,
        "candidate_score": 0.555,
        "heuristic_confidence": 0.555,
        "rejection_reasons": [
          "AREA_TOO_SMALL"
        ],
        "status": "REJECTED"
      }
    },
    {
      "type": "Feature",
      "id": "CS_0015",
      "geometry": {
        "type": "Polygon",
        "coordinates": [
          [
            [
              -118.38340000000001,
              33.413399999999996
            ],
            [
              -118.38340000000001,
              33.413
            ],
            [
              -118.38310000000001,
              33.413
            ],
            [
              -118.38310000000001,
              33.41289999999999
            ],
            [
              -118.3832,
              33.41289999999999
            ],
            [
              -118.3832,
              33.4126
            ],
            [
              -118.38310000000001,
              33.4126
            ],
            [
              -118.38310000000001,
              33.4124
            ],
            [
              -118.38300000000001,
              33.4124
            ],
            [
              -118.38300000000001,
              33.41179999999999
            ],
            [
              -118.3829,
              33.41179999999999
            ],
            [
              -118.3829,
              33.41159999999999
            ],
            [
              -118.3828,
              33.41159999999999
            ],
            [
              -118.3828,
              33.4115
            ],
            [
              -118.38270000000001,
              33.4115
            ],
            [
              -118.38270000000001,
              33.41139999999999
            ],
            [
              -118.38260000000001,
              33.41139999999999
            ],
            [
              -118.38260000000001,
              33.411199999999994
            ],
            [
              -118.38250000000001,
              33.411199999999994
            ],
            [
              -118.38250000000001,
              33.4111
            ],
            [
              -118.38180000000001,
              33.4111
            ],
            [
              -118.38180000000001,
              33.4113
            ],
            [
              -118.38170000000001,
              33.4113
            ],
            [
              -118.38170000000001,
              33.411199999999994
            ],
            [
              -118.3816,
              33.411199999999994
            ],
            [
              -118.3816,
              33.4111
            ],
            [
              -118.3815,
              33.4111
            ],
            [
              -118.3815,
              33.410799999999995
            ],
            [
              -118.3812,
              33.410799999999995
            ],
            [
              -118.3812,
              33.410999999999994
            ],
            [
              -118.3811,
              33.410999999999994
            ],
            [
              -118.3811,
              33.4109
            ],
            [
              -118.38080000000001,
              33.4109
            ],
            [
              -118.38080000000001,
              33.410799999999995
            ],
            [
              -118.3807,
              33.410799999999995
            ],
            [
              -118.3807,
              33.4107
            ],
            [
              -118.38040000000001,
              33.4107
            ],
            [
              -118.38040000000001,
              33.410799999999995
            ],
            [
              -118.3802,
              33.410799999999995
            ],
            [
              -118.3802,
              33.4107
            ],
            [
              -118.38010000000001,
              33.4107
            ],
            [
              -118.38010000000001,
              33.410399999999996
            ],
            [
              -118.38000000000001,
              33.410399999999996
            ],
            [
              -118.38000000000001,
              33.41029999999999
            ],
            [
              -118.38010000000001,
              33.41029999999999
            ],
            [
              -118.38010000000001,
              33.41
            ],
            [
              -118.3798,
              33.41
            ],
            [
              -118.3798,
              33.410199999999996
            ],
            [
              -118.37970000000001,
              33.410199999999996
            ],
            [
              -118.37970000000001,
              33.41
            ],
            [
              -118.3794,
              33.41
            ],
            [
              -118.3794,
              33.41009999999999
            ],
            [
              -118.37920000000001,
              33.41009999999999
            ],
            [
              -118.37920000000001,
              33.410199999999996
            ],
            [
              -118.379,
              33.410199999999996
            ],
            [
              -118.379,
              33.41029999999999
            ],
            [
              -118.37890000000002,
              33.41029999999999
            ],
            [
              -118.37890000000002,
              33.4105
            ],
            [
              -118.37880000000001,
              33.4105
            ],
            [
              -118.37880000000001,
              33.410799999999995
            ],
            [
              -118.3786,
              33.410799999999995
            ],
            [
              -118.3786,
              33.4105
            ],
            [
              -118.3785,
              33.4105
            ],
            [
              -118.3785,
              33.410399999999996
            ],
            [
              -118.37840000000001,
              33.410399999999996
            ],
            [
              -118.37840000000001,
              33.410199999999996
            ],
            [
              -118.3781,
              33.410199999999996
            ],
            [
              -118.3781,
              33.410399999999996
            ],
            [
              -118.37800000000001,
              33.410399999999996
            ],
            [
              -118.37800000000001,
              33.4105
            ],
            [
              -118.3777,
              33.4105
            ],
            [
              -118.3777,
              33.410399999999996
            ],
            [
              -118.37750000000001,
              33.410399999999996
            ],
            [
              -118.37750000000001,
              33.41009999999999
            ],
            [
              -118.3772,
              33.41009999999999
            ],
            [
              -118.3772,
              33.410399999999996
            ],
            [
              -118.37710000000001,
              33.410399999999996
            ],
            [
              -118.37710000000001,
              33.4105
            ],
            [
              -118.37700000000001,
              33.4105
            ],
            [
              -118.37700000000001,
              33.410399999999996
            ],
            [
              -118.37660000000001,
              33.410399999999996
            ],
            [
              -118.37660000000001,
              33.4107
            ],
            [
              -118.37650000000001,
              33.4107
            ],
            [
              -118.37650000000001,
              33.4105
            ],
            [
              -118.37620000000001,
              33.4105
            ],
            [
              -118.37620000000001,
              33.4107
            ],
            [
              -118.37610000000001,
              33.4107
            ],
            [
              -118.37610000000001,
              33.410799999999995
            ],
            [
              -118.376,
              33.410799999999995
            ],
            [
              -118.376,
              33.4109
            ],
            [
              -118.37480000000001,
              33.4109
            ],
            [
              -118.37480000000001,
              33.4111
            ],
            [
              -118.3747,
              33.4111
            ],
            [
              -118.3747,
              33.411199999999994
            ],
            [
              -118.37450000000001,
              33.411199999999994
            ],
            [
              -118.37450000000001,
              33.4111
            ],
            [
              -118.37440000000001,
              33.4111
            ],
            [
              -118.37440000000001,
              33.4107
            ],
            [
              -118.37400000000001,
              33.4107
            ],
            [
              -118.37400000000001,
              33.410799999999995
            ],
            [
              -118.3739,
              33.410799999999995
            ],
            [
              -118.3739,
              33.4107
            ],
            [
              -118.3735,
              33.4107
            ],
            [
              -118.3735,
              33.410799999999995
            ],
            [
              -118.3734,
              33.410799999999995
            ],
            [
              -118.3734,
              33.4111
            ],
            [
              -118.3735,
              33.4111
            ],
            [
              -118.3735,
              33.411199999999994
            ],
            [
              -118.3738,
              33.411199999999994
            ],
            [
              -118.3738,
              33.4111
            ],
            [
              -118.37400000000001,
              33.4111
            ],
            [
              -118.37400000000001,
              33.411199999999994
            ],
            [
              -118.37410000000001,
              33.411199999999994
            ],
            [
              -118.37410000000001,
              33.41139999999999
            ],
            [
              -118.3742,
              33.41139999999999
            ],
            [
              -118.3742,
              33.4115
            ],
            [
              -118.3743,
              33.4115
            ],
            [
              -118.3743,
              33.41159999999999
            ],
            [
              -118.37440000000001,
              33.41159999999999
            ],
            [
              -118.37440000000001,
              33.411699999999996
            ],
            [
              -118.37490000000001,
              33.411699999999996
            ],
            [
              -118.37490000000001,
              33.41179999999999
            ],
            [
              -118.37530000000001,
              33.41179999999999
            ],
            [
              -118.37530000000001,
              33.411699999999996
            ],
            [
              -118.37540000000001,
              33.411699999999996
            ],
            [
              -118.37540000000001,
              33.4122
            ],
            [
              -118.3755,
              33.4122
            ],
            [
              -118.3755,
              33.412299999999995
            ],
            [
              -118.3756,
              33.412299999999995
            ],
            [
              -118.3756,
              33.4124
            ],
            [
              -118.37530000000001,
              33.4124
            ],
            [
              -118.37530000000001,
              33.4122
            ],
            [
              -118.37500000000001,
              33.4122
            ],
            [
              -118.37500000000001,
              33.412499999999994
            ],
            [
              -118.3752,
              33.412499999999994
            ],
            [
              -118.3752,
              33.412699999999994
            ],
            [
              -118.37570000000001,
              33.412699999999994
            ],
            [
              -118.37570000000001,
              33.4128
            ],
            [
              -118.37620000000001,
              33.4128
            ],
            [
              -118.37620000000001,
              33.41289999999999
            ],
            [
              -118.37630000000001,
              33.41289999999999
            ],
            [
              -118.37630000000001,
              33.413
            ],
            [
              -118.3764,
              33.413
            ],
            [
              -118.3764,
              33.41309999999999
            ],
            [
              -118.37620000000001,
              33.41309999999999
            ],
            [
              -118.37620000000001,
              33.413
            ],
            [
              -118.37590000000002,
              33.413
            ],
            [
              -118.37590000000002,
              33.41309999999999
            ],
            [
              -118.37570000000001,
              33.41309999999999
            ],
            [
              -118.37570000000001,
              33.413
            ],
            [
              -118.37500000000001,
              33.413
            ],
            [
              -118.37500000000001,
              33.41329999999999
            ],
            [
              -118.3752,
              33.41329999999999
            ],
            [
              -118.3752,
              33.413399999999996
            ],
            [
              -118.3755,
              33.413399999999996
            ],
            [
              -118.3755,
              33.41329999999999
            ],
            [
              -118.37570000000001,
              33.41329999999999
            ],
            [
              -118.37570000000001,
              33.413399999999996
            ],
            [
              -118.37660000000001,
              33.413399999999996
            ],
            [
              -118.37660000000001,
              33.413199999999996
            ],
            [
              -118.37670000000001,
              33.413199999999996
            ],
            [
              -118.37670000000001,
              33.412499999999994
            ],
            [
              -118.37660000000001,
              33.412499999999994
            ],
            [
              -118.37660000000001,
              33.4124
            ],
            [
              -118.376,
              33.4124
            ],
            [
              -118.376,
              33.4122
            ],
            [
              -118.37590000000002,
              33.4122
            ],
            [
              -118.37590000000002,
              33.412
            ],
            [
              -118.37570000000001,
              33.412
            ],
            [
              -118.37570000000001,
              33.41159999999999
            ],
            [
              -118.37580000000001,
              33.41159999999999
            ],
            [
              -118.37580000000001,
              33.411699999999996
            ],
            [
              -118.37610000000001,
              33.411699999999996
            ],
            [
              -118.37610000000001,
              33.4115
            ],
            [
              -118.37630000000001,
              33.4115
            ],
            [
              -118.37630000000001,
              33.411699999999996
            ],
            [
              -118.37660000000001,
              33.411699999999996
            ],
            [
              -118.37660000000001,
              33.41139999999999
            ],
            [
              -118.37630000000001,
              33.41139999999999
            ],
            [
              -118.37630000000001,
              33.4113
            ],
            [
              -118.3764,
              33.4113
            ],
            [
              -118.3764,
              33.4111
            ],
            [
              -118.37650000000001,
              33.4111
            ],
            [
              -118.37650000000001,
              33.410999999999994
            ],
            [
              -118.37660000000001,
              33.410999999999994
            ],
            [
              -118.37660000000001,
              33.4113
            ],
            [
              -118.37670000000001,
              33.4113
            ],
            [
              -118.37670000000001,
              33.41159999999999
            ],
            [
              -118.3769,
              33.41159999999999
            ],
            [
              -118.3769,
              33.411699999999996
            ],
            [
              -118.37710000000001,
              33.411699999999996
            ],
            [
              -118.37710000000001,
              33.411899999999996
            ],
            [
              -118.3773,
              33.411899999999996
            ],
            [
              -118.3773,
              33.412
            ],
            [
              -118.37740000000001,
              33.412
            ],
            [
              -118.37740000000001,
              33.412099999999995
            ],
            [
              -118.37750000000001,
              33.412099999999995
            ],
            [
              -118.37750000000001,
              33.4122
            ],
            [
              -118.37780000000001,
              33.4122
            ],
            [
              -118.37780000000001,
              33.412099999999995
            ],
            [
              -118.37790000000001,
              33.412099999999995
            ],
            [
              -118.37790000000001,
              33.41179999999999
            ],
            [
              -118.37800000000001,
              33.41179999999999
            ],
            [
              -118.37800000000001,
              33.412099999999995
            ],
            [
              -118.37830000000001,
              33.412099999999995
            ],
            [
              -118.37830000000001,
              33.41179999999999
            ],
            [
              -118.3782,
              33.41179999999999
            ],
            [
              -118.3782,
              33.411699999999996
            ],
            [
              -118.3786,
              33.411699999999996
            ],
            [
              -118.3786,
              33.41159999999999
            ],
            [
              -118.379,
              33.41159999999999
            ],
            [
              -118.379,
              33.411899999999996
            ],
            [
              -118.37880000000001,
              33.411899999999996
            ],
            [
              -118.37880000000001,
              33.412
            ],
            [
              -118.3786,
              33.412
            ],
            [
              -118.3786,
              33.4128
            ],
            [
              -118.379,
              33.4128
            ],
            [
              -118.379,
              33.4126
            ],
            [
              -118.37920000000001,
              33.4126
            ],
            [
              -118.37920000000001,
              33.4128
            ],
            [
              -118.37960000000001,
              33.4128
            ],
            [
              -118.37960000000001,
              33.41289999999999
            ],
            [
              -118.37970000000001,
              33.41289999999999
            ],
            [
              -118.37970000000001,
              33.41309999999999
            ],
            [
              -118.38000000000001,
              33.41309999999999
            ],
            [
              -118.38000000000001,
              33.412699999999994
            ],
            [
              -118.3799,
              33.412699999999994
            ],
            [
              -118.3799,
              33.4126
            ],
            [
              -118.38000000000001,
              33.4126
            ],
            [
              -118.38000000000001,
              33.412499999999994
            ],
            [
              -118.38010000000001,
              33.412499999999994
            ],
            [
              -118.38010000000001,
              33.4126
            ],
            [
              -118.38040000000001,
              33.4126
            ],
            [
              -118.38040000000001,
              33.412499999999994
            ],
            [
              -118.38050000000001,
              33.412499999999994
            ],
            [
              -118.38050000000001,
              33.4122
            ],
            [
              -118.38060000000002,
              33.4122
            ],
            [
              -118.38060000000002,
              33.4126
            ],
            [
              -118.38050000000001,
              33.4126
            ],
            [
              -118.38050000000001,
              33.41289999999999
            ],
            [
              -118.38060000000002,
              33.41289999999999
            ],
            [
              -118.38060000000002,
              33.41309999999999
            ],
            [
              -118.38090000000001,
              33.41309999999999
            ],
            [
              -118.38090000000001,
              33.413199999999996
            ],
            [
              -118.38140000000001,
              33.413199999999996
            ],
            [
              -118.38140000000001,
              33.41289999999999
            ],
            [
              -118.38100000000001,
              33.41289999999999
            ],
            [
              -118.38100000000001,
              33.4128
            ],
            [
              -118.3816,
              33.4128
            ],
            [
              -118.3816,
              33.4126
            ],
            [
              -118.38180000000001,
              33.4126
            ],
            [
              -118.38180000000001,
              33.412499999999994
            ],
            [
              -118.382,
              33.412499999999994
            ],
            [
              -118.382,
              33.4128
            ],
            [
              -118.38210000000001,
              33.4128
            ],
            [
              -118.38210000000001,
              33.41289999999999
            ],
            [
              -118.3828,
              33.41289999999999
            ],
            [
              -118.3828,
              33.41329999999999
            ],
            [
              -118.38300000000001,
              33.41329999999999
            ],
            [
              -118.38300000000001,
              33.413399999999996
            ],
            [
              -118.38340000000001,
              33.413399999999996
            ]
          ],
          [
            [
              -118.37950000000001,
              33.4124
            ],
            [
              -118.37930000000001,
              33.4124
            ],
            [
              -118.37930000000001,
              33.412299999999995
            ],
            [
              -118.37910000000001,
              33.412299999999995
            ],
            [
              -118.37910000000001,
              33.412099999999995
            ],
            [
              -118.37950000000001,
              33.412099999999995
            ],
            [
              -118.37950000000001,
              33.4124
            ]
          ],
          [
            [
              -118.3799,
              33.412299999999995
            ],
            [
              -118.3798,
              33.412299999999995
            ],
            [
              -118.3798,
              33.4122
            ],
            [
              -118.3799,
              33.4122
            ],
            [
              -118.3799,
              33.412299999999995
            ]
          ],
          [
            [
              -118.38090000000001,
              33.4122
            ],
            [
              -118.38060000000002,
              33.4122
            ],
            [
              -118.38060000000002,
              33.412099999999995
            ],
            [
              -118.3807,
              33.412099999999995
            ],
            [
              -118.3807,
              33.412
            ],
            [
              -118.38090000000001,
              33.412
            ],
            [
              -118.38090000000001,
              33.4122
            ]
          ],
          [
            [
              -118.3794,
              33.41159999999999
            ],
            [
              -118.37930000000001,
              33.41159999999999
            ],
            [
              -118.37930000000001,
              33.4115
            ],
            [
              -118.379,
              33.4115
            ],
            [
              -118.379,
              33.4113
            ],
            [
              -118.37920000000001,
              33.4113
            ],
            [
              -118.37920000000001,
              33.41139999999999
            ],
            [
              -118.37960000000001,
              33.41139999999999
            ],
            [
              -118.37960000000001,
              33.4115
            ],
            [
              -118.3794,
              33.4115
            ],
            [
              -118.3794,
              33.41159999999999
            ]
          ],
          [
            [
              -118.3752,
              33.41139999999999
            ],
            [
              -118.3751,
              33.41139999999999
            ],
            [
              -118.3751,
              33.411199999999994
            ],
            [
              -118.3752,
              33.411199999999994
            ],
            [
              -118.3752,
              33.41139999999999
            ]
          ],
          [
            [
              -118.38050000000001,
              33.411199999999994
            ],
            [
              -118.3803,
              33.411199999999994
            ],
            [
              -118.3803,
              33.4111
            ],
            [
              -118.38050000000001,
              33.4111
            ],
            [
              -118.38050000000001,
              33.411199999999994
            ]
          ],
          [
            [
              -118.3772,
              33.4111
            ],
            [
              -118.37700000000001,
              33.4111
            ],
            [
              -118.37700000000001,
              33.410999999999994
            ],
            [
              -118.3769,
              33.410999999999994
            ],
            [
              -118.3769,
              33.4109
            ],
            [
              -118.37700000000001,
              33.4109
            ],
            [
              -118.37700000000001,
              33.410799999999995
            ],
            [
              -118.3772,
              33.410799999999995
            ],
            [
              -118.3772,
              33.4111
            ]
          ],
          [
            [
              -118.37800000000001,
              33.410999999999994
            ],
            [
              -118.37790000000001,
              33.410999999999994
            ],
            [
              -118.37790000000001,
              33.4109
            ],
            [
              -118.37800000000001,
              33.4109
            ],
            [
              -118.37800000000001,
              33.410999999999994
            ]
          ]
        ]
      },
      "properties": {
        "candidate_id": "CS_0015",
        "numeric_id": 15,
        "raw_component_id": 485,
        "pixel_count": 1585,
        "area_km2": 0.1636,
        "perimeter_km": 4.389,
        "centroid_lon": -118.37887,
        "centroid_lat": 33.41168,
        "bounding_box": [
          -118.38335,
          33.41005,
          -118.37345,
          33.41335
        ],
        "length_km": 0.926,
        "width_km": 0.335,
        "aspect_ratio": 2.77,
        "orientation_deg": -84.7,
        "mean_sigma0_db": -25.73,
        "min_sigma0_db": -32.16,
        "mean_contrast_db": 6.06,
        "max_contrast_db": 12.55,
        "candidate_score": 0.636,
        "heuristic_confidence": 0.636,
        "rejection_reasons": [],
        "status": "ACCEPTED"
      }
    },
    {
      "type": "Feature",
      "id": "CS_0016",
      "geometry": {
        "type": "Polygon",
        "coordinates": [
          [
            [
              -118.3724,
              33.4112
            ],
            [
              -118.3724,
              33.4109
            ],
            [
              -118.3725,
              33.4109
            ],
            [
              -118.3725,
              33.4105
            ],
            [
              -118.3722,
              33.4105
            ],
            [
              -118.3722,
              33.4108
            ],
            [
              -118.3721,
              33.4108
            ],
            [
              -118.3721,
              33.4112
            ],
            [
              -118.3724,
              33.4112
            ]
          ]
        ]
      },
      "properties": {
        "candidate_id": "CS_0016",
        "numeric_id": 16,
        "raw_component_id": 494,
        "pixel_count": 208,
        "area_km2": 0.0215,
        "perimeter_km": 1.27,
        "centroid_lon": -118.37103,
        "centroid_lat": 33.41079,
        "bounding_box": [
          -118.37245,
          33.40975,
          -118.36965,
          33.41195
        ],
        "length_km": 0.318,
        "width_km": 0.174,
        "aspect_ratio": 1.83,
        "orientation_deg": -53.4,
        "mean_sigma0_db": -26.55,
        "min_sigma0_db": -29.97,
        "mean_contrast_db": 5.37,
        "max_contrast_db": 8.81,
        "candidate_score": 0.555,
        "heuristic_confidence": 0.555,
        "rejection_reasons": [
          "AREA_TOO_SMALL"
        ],
        "status": "REJECTED"
      }
    },
    {
      "type": "Feature",
      "id": "CS_0017",
      "geometry": {
        "type": "Polygon",
        "coordinates": [
          [
            [
              -118.36930000000001,
              33.4083
            ],
            [
              -118.36930000000001,
              33.4079
            ],
            [
              -118.36900000000001,
              33.4079
            ],
            [
              -118.36900000000001,
              33.4077
            ],
            [
              -118.36890000000001,
              33.4077
            ],
            [
              -118.36890000000001,
              33.4075
            ],
            [
              -118.36860000000001,
              33.4075
            ],
            [
              -118.36860000000001,
              33.4077
            ],
            [
              -118.36850000000001,
              33.4077
            ],
            [
              -118.36850000000001,
              33.407799999999995
            ],
            [
              -118.36840000000001,
              33.407799999999995
            ],
            [
              -118.36840000000001,
              33.4075
            ],
            [
              -118.36810000000001,
              33.4075
            ],
            [
              -118.36810000000001,
              33.407599999999995
            ],
            [
              -118.36760000000001,
              33.407599999999995
            ],
            [
              -118.36760000000001,
              33.4079
            ],
            [
              -118.36820000000002,
              33.4079
            ],
            [
              -118.36820000000002,
              33.407799999999995
            ],
            [
              -118.3683,
              33.407799999999995
            ],
            [
              -118.3683,
              33.408199999999994
            ],
            [
              -118.36860000000001,
              33.408199999999994
            ],
            [
              -118.36860000000001,
              33.4081
            ],
            [
              -118.3687,
              33.4081
            ],
            [
              -118.3687,
              33.407999999999994
            ],
            [
              -118.36900000000001,
              33.407999999999994
            ],
            [
              -118.36900000000001,
              33.4083
            ],
            [
              -118.36930000000001,
              33.4083
            ]
          ]
        ]
      },
      "properties": {
        "candidate_id": "CS_0017",
        "numeric_id": 17,
        "raw_component_id": 516,
        "pixel_count": 69,
        "area_km2": 0.0071,
        "perimeter_km": 0.518,
        "centroid_lon": -118.3685,
        "centroid_lat": 33.40785,
        "bounding_box": [
          -118.36925,
          33.40755,
          -118.36765,
          33.40825
        ],
        "length_km": 0.175,
        "width_km": 0.071,
        "aspect_ratio": 2.45,
        "orientation_deg": -73.4,
        "mean_sigma0_db": -25.73,
        "min_sigma0_db": -27.84,
        "mean_contrast_db": 4.61,
        "max_contrast_db": 6.82,
        "candidate_score": 0.481,
        "heuristic_confidence": 0.481,
        "rejection_reasons": [
          "AREA_TOO_SMALL"
        ],
        "status": "REJECTED"
      }
    },
    {
      "type": "Feature",
      "id": "CS_0018",
      "geometry": {
        "type": "Polygon",
        "coordinates": [
          [
            [
              -118.3665,
              33.404199999999996
            ],
            [
              -118.3665,
              33.40389999999999
            ],
            [
              -118.3664,
              33.40389999999999
            ],
            [
              -118.3664,
              33.4036
            ],
            [
              -118.366,
              33.4036
            ],
            [
              -118.366,
              33.40409999999999
            ],
            [
              -118.3661,
              33.40409999999999
            ],
            [
              -118.3661,
              33.404199999999996
            ],
            [
              -118.3665,
              33.404199999999996
            ]
          ]
        ]
      },
      "properties": {
        "candidate_id": "CS_0018",
        "numeric_id": 18,
        "raw_component_id": 532,
        "pixel_count": 247,
        "area_km2": 0.0255,
        "perimeter_km": 1.118,
        "centroid_lon": -118.366,
        "centroid_lat": 33.40258,
        "bounding_box": [
          -118.36685,
          33.40115,
          -118.36495,
          33.40415
        ],
        "length_km": 0.313,
        "width_km": 0.161,
        "aspect_ratio": 1.94,
        "orientation_deg": -11.5,
        "mean_sigma0_db": -26.59,
        "min_sigma0_db": -31.55,
        "mean_contrast_db": 5.18,
        "max_contrast_db": 9.26,
        "candidate_score": 0.543,
        "heuristic_confidence": 0.543,
        "rejection_reasons": [
          "AREA_TOO_SMALL"
        ],
        "status": "REJECTED"
      }
    }
  ]
}